[{"OBJECT_NAME":"FLOCK 4G-25","OBJECT_ID":"2025-009AP","EPOCH":"2026-03-09T17:53:50.680608","MEAN_MOTION":15.27424196,"ECCENTRICITY":8.276e-5,"INCLINATION":97.4049,"RA_OF_ASC_NODE":151.4141,"ARG_OF_PERICENTER":316.3151,"MEAN_ANOMALY":43.8023,"EPHEMERIS_TYPE":0,"CLASSIFICATION_TYPE":"U","NORAD_CAT_ID":62646,"ELEMENT_SET_NO":999,"REV_AT_EPOCH":6373,"BSTAR":0.00038902475,"MEAN_MOTION_DOT":0.00010373,"MEAN_MOTION_DDOT":0},{"OBJECT_NAME":"STARLINK-36507","OBJECT_ID":"2026-005F","EPOCH":"2026-03-09T11:49:36.683616","MEAN_MOTION":15.27593745,"ECCENTRICITY":0.00021331,"INCLINATION":43.0013,"RA_OF_ASC_NODE":239.3292,"ARG_OF_PERICENTER":265.9144,"MEAN_ANOMALY":94.1464,"EPHEMERIS_TYPE":0,"CLASSIFICATION_TYPE":"U","NORAD_CAT_ID":67409,"ELEMENT_SET_NO":999,"REV_AT_EPOCH":866,"BSTAR":0.00093302103,"MEAN_MOTION_DOT":0.00025513,"MEAN_MOTION_DDOT":0}]
